[{"OBJECT_NAME":"STARLINK-31378","OBJECT_ID":"2024-027B","EPOCH":"2026-03-09T21:55:01.648128","MEAN_MOTION":15.30194819,"ECCENTRICITY":0.00014925,"INCLINATION":53.1626,"RA_OF_ASC_NODE":308.5056,"ARG_OF_PERICENTER":87.6866,"MEAN_ANOMALY":272.4306,"EPHEMERIS_TYPE":0,"CLASSIFICATION_TYPE":"U","NORAD_CAT_ID":58932,"ELEMENT_SET_NO":999,"REV_AT_EPOCH":11736,"BSTAR":0.00011737913,"MEAN_MOTION_DOT":3.118e-5,"MEAN_MOTION_DDOT":0},{"OBJECT_NAME":"GEOSCAN 5 (RS92S5)","OBJECT_ID":"2025-155R","EPOCH":"2026-03-09T22:01:07.273920","MEAN_MOTION":15.30265233,"ECCENTRICITY":0.00070849,"INCLINATION":97.4462,"RA_OF_ASC_NODE":37.7456,"ARG_OF_PERICENTER":154.5846,"MEAN_ANOMALY":205.5745,"EPHEMERIS_TYPE":0,"CLASSIFICATION_TYPE":"U","NORAD_CAT_ID":64891,"ELEMENT_SET_NO":999,"REV_AT_EPOCH":6562,"BSTAR":0.00068639307,"MEAN_MOTION_DOT":0.00020065,"MEAN_MOTION_DDOT":0}]
